NORAD_CAT_ID,OBJECT_NAME,OBJECT_TYPE,EPOCH,MEAN_MOTION,ECCENTRICITY,INCLINATION,RA_OF_ASC_NODE,ARG_OF_PERICENTER,MEAN_ANOMALY,BSTAR,MEAN_MOTION_DOT,MEAN_MOTION_DDOT,TLE_LINE0,TLE_LINE1,TLE_LINE2,SEMIMAJOR_AXIS,PERIOD,APOGEE,PERIGEE,DECAYED
53601.0,STARLINK-4675,PAYLOAD,2023-06-20 20:41:18,15.08844042,9.93e-05,53.2186,20.9498,103.4491,256.6612,3.8889e-05,3.31e-06,0.0,0 STARLINK-4675,1 53601U 22104P   23171.86201597  .00000331  00000-0  38889-4 0  9993,2 53601  53.2186  20.9498 0000993 103.4491 256.6612 15.08844042 45730,6917.868,95.437,540.42,539.046,0.0
53601.0,STARLINK-4675,PAYLOAD,2023-06-20 23:52:04,15.08844763,9.66e-05,53.2187,20.355,93.6757,266.4345,4.6486e-05,4.52e-06,0.0,0 STARLINK-4675,1 53601U 22104P   23171.99449544  .00000452  00000-0  46486-4 0  9999,2 53601  53.2187  20.3550 0000966  93.6757 266.4345 15.08844763 45753,6917.866,95.437,540.399,539.063,0.0
53601.0,STARLINK-4675,PAYLOAD,2023-06-21 20:32:05,15.08844492,9.47e-05,53.2186,16.491,85.3666,274.7435,-5.6609e-06,-3.78e-06,0.0,0 STARLINK-4675,1 53601U 22104P   23172.85561604 -.00000378  00000-0 -56609-5 0  9995,2 53601  53.2186  16.4910 0000947  85.3666 274.7435 15.08844492 45889,6917.867,95.437,540.387,539.077,0.0
53601.0,STARLINK-4675,PAYLOAD,2023-06-21 23:42:51,15.08848733,9.17e-05,53.2178,15.8969,83.7095,276.4002,-2.7628e-05,-7.28e-06,0.0,0 STARLINK-4675,1 53601U 22104P   23172.98809338 -.00000728  00000-0 -27628-4 0  9995,2 53601  53.2178  15.8969 0000917  83.7095 276.4002 15.08848733 45210,6917.854,95.437,540.353,539.084,0.0
53601.0,STARLINK-4675,PAYLOAD,2023-06-22 18:47:29,15.08839226,9.18e-05,53.2179,12.328,90.6727,269.437,8.3364e-05,1.039e-05,0.0,0 STARLINK-4675,1 53601U 22104P   23173.78297902  .00001039  00000-0  83364-4 0  9995,2 53601  53.2179  12.3280 0000918  90.6727 269.4370 15.08839226 45339,6917.883,95.438,540.383,539.113,0.0
53601.0,STARLINK-4675,PAYLOAD,2023-06-22 23:33:38,15.08846082,8.91e-05,53.2179,11.4361,92.7876,267.3218,0.00015502,2.181e-05,0.0,0 STARLINK-4675,1 53601U 22104P   23173.98169308  .00002181  00000-0  15502-3 0  9992,2 53601  53.2179  11.4361 0000891  92.7876 267.3218 15.08846082 45366,6917.862,95.437,540.343,539.11,0.0
53601.0,STARLINK-4675,PAYLOAD,2023-06-23 18:38:16,15.0883493,0.000103,53.218,7.8681,93.6457,266.4653,2.7183e-05,1.45e-06,0.0,0 STARLINK-4675,1 53601U 22104P   23174.77658506  .00000145  00000-0  27183-4 0  9990,2 53601  53.2180   7.8681 0001030  93.6457 266.4653 15.08834930 45488,6917.896,95.438,540.473,539.048,0.0
53601.0,STARLINK-4675,PAYLOAD,2023-06-23 23:24:25,15.08841185,8.92e-05,53.2179,6.9768,92.9539,267.1555,6.7294e-05,7.83e-06,0.0,0 STARLINK-4675,1 53601U 22104P   23174.97529959  .00000783  00000-0  67294-4 0  9996,2 53601  53.2179   6.9768 0000892  92.9539 267.1555 15.08841185 45513,6917.877,95.437,540.359,539.125,0.0
53601.0,STARLINK-4675,PAYLOAD,2023-06-25 05:36:45,15.08840952,7.86e-05,53.2168,1.323,82.9501,277.1581,4.1557e-05,3.74e-06,0.0,0 STARLINK-4675,1 53601U 22104P   23176.23386007  .00000374  00000-0  41557-4 0  9992,2 53601  53.2168   1.3230 0000786  82.9501 277.1581 15.08840952 45706,6917.877,95.437,540.286,539.199,0.0
53601.0,STARLINK-4675,PAYLOAD,2023-06-26 05:27:33,15.08838192,8.36e-05,53.2175,356.8653,85.4443,274.6644,8.3166e-06,-1.55e-06,0.0,0 STARLINK-4675,1 53601U 22104P   23177.22746644 -.00000155  00000-0  83166-5 0  9990,2 53601  53.2175 356.8653 0000836  85.4443 274.6644 15.08838192 45851,6917.886,95.438,540.329,539.173,0.0
53601.0,STARLINK-4675,PAYLOAD,2023-06-27 11:39:52,15.08835866,9.6e-05,53.2169,351.2148,89.3558,270.7544,9.6757e-05,1.252e-05,0.0,0 STARLINK-4675,1 53601U 22104P   23178.48602779  .00001252  00000-0  96757-4 0  9996,2 53601  53.2169 351.2148 0000960  89.3558 270.7544 15.08835866 46043,6917.893,95.438,540.422,539.094,0.0
53601.0,STARLINK-4675,PAYLOAD,2023-06-27 18:01:24,15.08844174,9.87e-05,53.2182,350.0259,88.6971,271.4134,7.6517e-05,9.3e-06,0.0,0 STARLINK-4675,1 53601U 22104P   23178.75098349  .00000930  00000-0  76517-4 0  9992,2 53601  53.2182 350.0259 0000987  88.6971 271.4134 15.08844174 46087,6917.868,95.437,540.415,539.05,0.0
53601.0,STARLINK-4675,PAYLOAD,2023-06-29 11:21:27,15.08837068,9.87e-05,53.2187,342.2963,84.2203,275.8901,3.1609e-05,2.15e-06,0.0,0 STARLINK-4675,1 53601U 22104P   23180.47323049  .00000215  00000-0  31609-4 0  9991,2 53601  53.2187 342.2963 0000987  84.2203 275.8901 15.08837068 46340,6917.889,95.438,540.437,539.072,0.0
53601.0,STARLINK-4675,PAYLOAD,2023-06-30 15:58:23,15.08832883,9.58e-05,53.2191,336.9453,86.8397,273.2705,-2.2502e-05,-6.46e-06,0.0,0 STARLINK-4675,1 53601U 22104P   23181.66555480 -.00000646  00000-0 -22502-4 0  9991,2 53601  53.2191 336.9453 0000958  86.8397 273.2705 15.08832883 46523,6917.902,95.438,540.43,539.104,0.0
53601.0,STARLINK-4675,PAYLOAD,2023-07-01 09:27:38,15.08838684,9.38e-05,53.2184,333.6729,91.0079,269.1021,2.6445e-05,1.33e-06,0.0,0 STARLINK-4675,1 53601U 22104P   23182.39419148  .00000133  00000-0  26445-4 0  9991,2 53601  53.2184 333.6729 0000938  91.0079 269.1021 15.08838684 46630,6917.884,95.438,540.398,539.101,0.0
53601.0,STARLINK-4675,PAYLOAD,2023-07-02 10:53:48,15.08836161,0.0001009,53.2185,328.915,92.5976,267.5131,0.00011507,1.544e-05,0.0,0 STARLINK-4675,1 53601U 22104P   23183.45403205  .00001544  00000-0  11507-3 0  9995,2 53601  53.2185 328.9150 0001009  92.5976 267.5131 15.08836161 46797,6917.892,95.438,540.455,539.059,0.0
53601.0,STARLINK-4675,PAYLOAD,2023-07-02 17:15:20,15.08843293,9.9e-05,53.2185,327.7253,90.5555,269.555,0.00013594,1.877e-05,0.0,0 STARLINK-4675,1 53601U 22104P   23183.71898795  .00001877  00000-0  13594-3 0  9993,2 53601  53.2185 327.7253 0000990  90.5555 269.5550 15.08843293 46833,6917.87,95.437,540.42,539.05,0.0
53601.0,STARLINK-4675,PAYLOAD,2023-07-03 15:30:44,15.0884124,9.96e-05,53.2182,323.562,91.1307,268.9799,0.00014526,2.025e-05,0.0,0 STARLINK-4675,1 53601U 22104P   23184.64634857  .00002025  00000-0  14526-3 0  9995,2 53601  53.2182 323.5620 0000996  91.1307 268.9799 15.08841240 46973,6917.877,95.437,540.431,539.053,0.0
53601.0,STARLINK-4675,PAYLOAD,2023-07-04 08:59:59,15.08834442,9.79e-05,53.2176,320.2909,90.6572,269.4532,0.00012461,1.696e-05,0.0,0 STARLINK-4675,1 53601U 22104P   23185.37499161  .00001696  00000-0  12461-3 0  9992,2 53601  53.2176 320.2909 0000979  90.6572 269.4532 15.08834442 47089,6917.897,95.438,540.44,539.085,0.0
53601.0,STARLINK-4675,PAYLOAD,2023-07-04 15:21:31,15.0884434,8.91e-05,53.2168,319.1008,98.3207,261.7887,5.2492e-05,5.48e-06,0.0,0 STARLINK-4675,1 53601U 22104P   23185.63994646  .00000548  00000-0  52492-4 0  9993,2 53601  53.2168 319.1008 0000891  98.3207 261.7887 15.08844340 47121,6917.867,95.437,540.349,539.116,0.0
53601.0,STARLINK-4675,PAYLOAD,2023-07-05 02:29:13,15.08837983,9.67e-05,53.2172,317.0197,126.1821,233.926,-6.5177e-06,-3.91e-06,0.0,0 STARLINK-4675,1 53601U 22104P   23186.10363059 -.00000391  00000-0 -65177-5 0  9997,2 53601  53.2172 317.0197 0000967 126.1821 233.9260 15.08837983 47196,6917.887,95.438,540.421,539.083,0.0
53601.0,STARLINK-4675,PAYLOAD,2023-07-06 08:41:33,15.08836778,0.0001085,53.2188,311.3702,97.1158,262.9958,5.4595e-05,5.81e-06,0.0,0 STARLINK-4675,1 53601U 22104P   23187.36219321  .00000581  00000-0  54595-4 0  9998,2 53601  53.2188 311.3702 0001085  97.1158 262.9958 15.08836778 47382,6917.89,95.438,540.506,539.005,0.0
53601.0,STARLINK-4675,PAYLOAD,2023-07-07 14:53:52,15.08842418,9.2e-05,53.2185,305.7219,73.0586,287.0507,0.00016487,2.337e-05,0.0,0 STARLINK-4675,1 53601U 22104P   23188.62074950  .00002337  00000-0  16487-3 0  9993,2 53601  53.2185 305.7219 0000920  73.0586 287.0507 15.08842418 47571,6917.873,95.437,540.374,539.102,0.0
53601.0,STARLINK-4675,PAYLOAD,2023-07-08 09:58:30,15.08839221,8.7e-05,53.2169,302.1533,66.8653,293.2431,4.2339e-05,3.86e-06,0.0,0 STARLINK-4675,1 53601U 22104P   23189.41563485  .00000386  00000-0  42339-4 0  9995,2 53601  53.2169 302.1533 0000870  66.8653 293.2431 15.08839221 47698,6917.883,95.438,540.35,539.146,0.0
53601.0,STARLINK-4675,PAYLOAD,2023-07-09 13:00:04,15.08831827,0.0001027,53.218,297.0986,84.3161,275.7948,-4.878e-05,-1.064e-05,0.0,0 STARLINK-4675,1 53601U 22104P   23190.54172439 -.00001064  00000-0 -48780-4 0  9998,2 53601  53.2180 297.0986 0001027  84.3161 275.7948 15.08831827 47860,6917.905,95.438,540.481,539.06,0.0
53601.0,STARLINK-4675,PAYLOAD,2023-07-10 00:07:46,15.08836422,0.0001006,53.2178,295.0167,81.415,278.6956,4.2087e-05,3.82e-06,0.0,0 STARLINK-4675,1 53601U 22104P   23191.00540038  .00000382  00000-0  42087-4 0  9998,2 53601  53.2178 295.0167 0001006  81.4150 278.6956 15.08836422 47934,6917.891,95.438,540.452,539.06,0.0
53601.0,STARLINK-4675,PAYLOAD,2023-07-10 08:04:41,15.08842879,9e-05,53.2184,293.53,90.0229,270.0867,7.4415e-05,8.97e-06,0.0,0 STARLINK-4675,1 53601U 22104P   23191.33659558  .00000897  00000-0  74415-4 0  9993,2 53601  53.2184 293.5300 0000900  90.0229 270.0867 15.08842879 47983,6917.872,95.437,540.359,539.114,0.0
53601.0,STARLINK-4675,PAYLOAD,2023-07-11 06:20:06,15.08834077,0.0001188,53.218,289.3664,77.0377,283.0748,0.00011046,1.47e-05,0.0,0 STARLINK-4675,1 53601U 22104P   23192.26396126  .00001470  00000-0  11046-3 0  9993,2 53601  53.2180 289.3664 0001188  77.0377 283.0748 15.08834077 48123,6917.898,95.438,540.585,538.942,0.0
53601.0,STARLINK-4675,PAYLOAD,2023-07-11 23:49:20,15.08841669,0.0001091,53.218,286.0954,74.4154,285.6958,0.0001122,1.498e-05,0.0,0 STARLINK-4675,1 53601U 22104P   23192.99259671  .00001498  00000-0  11220-3 0  9990,2 53601  53.2180 286.0954 0001091  74.4154 285.6958 15.08841669 48234,6917.875,95.437,540.495,538.986,0.0
53601.0,STARLINK-4675,PAYLOAD,2023-07-12 12:32:24,15.08853318,0.0001162,53.2177,283.7165,75.3132,284.7989,8.7497e-05,1.105e-05,0.0,0 STARLINK-4675,1 53601U 22104P   23193.52250773  .00001105  00000-0  87497-4 0  9999,2 53601  53.2177 283.7165 0001162  75.3132 284.7989 15.08853318 48310,6917.84,95.437,540.509,538.901,0.0
